[{"OBJECT_NAME":"STARLINK-6045","OBJECT_ID":"2023-064Q","EPOCH":"2026-03-09T19:14:19.593888","MEAN_MOTION":14.98336196,"ECCENTRICITY":0.00034305,"INCLINATION":69.9997,"RA_OF_ASC_NODE":103.9741,"ARG_OF_PERICENTER":270.779,"MEAN_ANOMALY":89.2976,"EPHEMERIS_TYPE":0,"CLASSIFICATION_TYPE":"U","NORAD_CAT_ID":56462,"ELEMENT_SET_NO":999,"REV_AT_EPOCH":15625,"BSTAR":-4.633554e-5,"MEAN_MOTION_DOT":-6.46e-6,"MEAN_MOTION_DDOT":0},{"OBJECT_NAME":"CZ-6A DEB","OBJECT_ID":"2024-140YL","EPOCH":"2026-03-09T14:34:10.973280","MEAN_MOTION":14.76070049,"ECCENTRICITY":0.0107737,"INCLINATION":88.9686,"RA_OF_ASC_NODE":278.8738,"ARG_OF_PERICENTER":195.8975,"MEAN_ANOMALY":163.8857,"EPHEMERIS_TYPE":0,"CLASSIFICATION_TYPE":"U","NORAD_CAT_ID":61419,"ELEMENT_SET_NO":999,"REV_AT_EPOCH":8106,"BSTAR":0.0016404,"MEAN_MOTION_DOT":0.00012469,"MEAN_MOTION_DDOT":0}]
